[{"OBJECT_NAME":"STARLINK-32478","OBJECT_ID":"2024-196V","EPOCH":"2026-03-09T19:21:37.644480","MEAN_MOTION":15.30194201,"ECCENTRICITY":0.0001426,"INCLINATION":53.1607,"RA_OF_ASC_NODE":100.8552,"ARG_OF_PERICENTER":82.1334,"MEAN_ANOMALY":277.9828,"EPHEMERIS_TYPE":0,"CLASSIFICATION_TYPE":"U","NORAD_CAT_ID":61726,"ELEMENT_SET_NO":999,"REV_AT_EPOCH":7717,"BSTAR":-2.2344937e-5,"MEAN_MOTION_DOT":-1.021e-5,"MEAN_MOTION_DDOT":0},{"OBJECT_NAME":"JINJUSAT-1B","OBJECT_ID":"2025-052A","EPOCH":"2026-03-09T15:55:38.242848","MEAN_MOTION":15.30194857,"ECCENTRICITY":0.00055504,"INCLINATION":97.4113,"RA_OF_ASC_NODE":325.4613,"ARG_OF_PERICENTER":82.193,"MEAN_ANOMALY":277.9941,"EPHEMERIS_TYPE":0,"CLASSIFICATION_TYPE":"U","NORAD_CAT_ID":63210,"ELEMENT_SET_NO":999,"REV_AT_EPOCH":5486,"BSTAR":0.00068430401,"MEAN_MOTION_DOT":0.00019955,"MEAN_MOTION_DDOT":0}]
