STARLINK-32478          
1 61726U 24196V   26068.80668570 -.00001021  00000+0 -22345-4 0  9991
2 61726  53.1607 100.8552 0001426  82.1334 277.9828 15.30194201 77172
JINJUSAT-1B             
1 63210U 25052A   26068.66363707  .00019955  00000+0  68430-3 0  9998
2 63210  97.4113 325.4613 0005550  82.1930 277.9941 15.30194857 54866
